STARLINK-31117          
1 58776U 24011M   26068.14384878  .00000728  00000+0  36721-4 0  9995
2 58776  53.1623  16.4221 0001090  73.5689 286.5432 15.30189861120183
TRANSPORTER-11 OBJECT A 
1 60468U 24149A   26068.74646182  .00010774  00000+0  36054-3 0  9993
2 60468  97.3780 149.0949 0003110 191.0010 169.1164 15.31141332 86830
