[{"OBJECT_NAME":"STARLINK-31117","OBJECT_ID":"2024-011M","EPOCH":"2026-03-09T03:27:08.534592","MEAN_MOTION":15.30189861,"ECCENTRICITY":0.00010903,"INCLINATION":53.1623,"RA_OF_ASC_NODE":16.4221,"ARG_OF_PERICENTER":73.5689,"MEAN_ANOMALY":286.5432,"EPHEMERIS_TYPE":0,"CLASSIFICATION_TYPE":"U","NORAD_CAT_ID":58776,"ELEMENT_SET_NO":999,"REV_AT_EPOCH":12018,"BSTAR":3.6721194e-5,"MEAN_MOTION_DOT":7.28e-6,"MEAN_MOTION_DDOT":0},{"OBJECT_NAME":"TRANSPORTER-11 OBJECT A","OBJECT_ID":"2024-149A","EPOCH":"2026-03-09T17:54:54.302112","MEAN_MOTION":15.31141332,"ECCENTRICITY":0.00031096,"INCLINATION":97.378,"RA_OF_ASC_NODE":149.0949,"ARG_OF_PERICENTER":191.001,"MEAN_ANOMALY":169.1164,"EPHEMERIS_TYPE":0,"CLASSIFICATION_TYPE":"U","NORAD_CAT_ID":60468,"ELEMENT_SET_NO":999,"REV_AT_EPOCH":8683,"BSTAR":0.00036053677,"MEAN_MOTION_DOT":0.00010774,"MEAN_MOTION_DDOT":0}]
